{"type": "FeatureCollection", "features": [ {"type": "Feature", "properties": {"norad_id": 37216, "name": "COSMO-SKYMED 4", "group": "resource", "lat": -80.47365091302652, "lon": -76.58792649456335, "alt_km": 630.8867500117185, "timestamp": "2025-12-03T13:52:09.222022+00:00", "meta": {"OBJECT_NAME": "COSMO-SKYMED 4", "OBJECT_ID": "2010-060A", "EPOCH": "2025-12-03T07:49:05.016864", "MEAN_MOTION": 14.82149498, "ECCENTRICITY": 0.00014136, "INCLINATION": 97.8807, "RA_OF_ASC_NODE": 158.7909, "ARG_OF_PERICENTER": 83.0385, "MEAN_ANOMALY": 277.0989, "EPHEMERIS_TYPE": 0, "CLASSIFICATION_TYPE": "U", "NORAD_CAT_ID": 37216, "ELEMENT_SET_NO": 999, "REV_AT_EPOCH": 81555, "BSTAR": 0.00011506336, "MEAN_MOTION_DOT": 8.64e-06, "MEAN_MOTION_DDOT": 0}, "tle": {"line1": "1 37216U 10060A   25337.32575251  .00000864  00000+0  11506-3 0  9999", "line2": "2 37216  97.8807 158.7909 0001413  83.0385 277.0989 14.82149498815551"}}, "geometry": {"type": "Point", "coordinates": [-76.58792649456335, -80.47365091302652]}}, {"type": "Feature", "properties": {"norad_id": 37387, "name": "RESOURCESAT-2", "group": "resource", "lat": 62.35138078689778, "lon": 23.993480099164437, "alt_km": 808.985498893865, "timestamp": "2025-12-03T13:52:09.222032+00:00", "meta": {"OBJECT_NAME": "RESOURCESAT-2", "OBJECT_ID": "2011-015A", "EPOCH": "2025-12-03T08:30:12.480768", "MEAN_MOTION": 14.21591048, "ECCENTRICITY": 0.00067862, "INCLINATION": 98.789, "RA_OF_ASC_NODE": 40.9478, "ARG_OF_PERICENTER": 66.6926, "MEAN_ANOMALY": 293.4965, "EPHEMERIS_TYPE": 0, "CLASSIFICATION_TYPE": "U", "NORAD_CAT_ID": 37387, "ELEMENT_SET_NO": 999, "REV_AT_EPOCH": 75835, "BSTAR": 0.000137039, "MEAN_MOTION_DOT": 2.56e-06, "MEAN_MOTION_DDOT": 0}, "tle": {"line1": "1 37387U 11015A   25337.35431112  .00000256  00000+0  13704-3 0  9996", "line2": "2 37387  98.7890  40.9478 0006786  66.6926 293.4965 14.21591048758356"}}, "geometry": {"type": "Point", "coordinates": [23.993480099164437, 62.35138078689778]}}, {"type": "Feature", "properties": {"norad_id": 37781, "name": "HAIYANG-2A", "group": "resource", "lat": 76.10762015089094, "lon": -63.04606017200603, "alt_km": 959.620695973571, "timestamp": "2025-12-03T13:52:09.222043+00:00", "meta": {"OBJECT_NAME": "HAIYANG-2A", "OBJECT_ID": "2011-043A", "EPOCH": "2025-12-03T06:31:05.630880", "MEAN_MOTION": 13.78834162, "ECCENTRICITY": 0.0001644, "INCLINATION": 99.3377, "RA_OF_ASC_NODE": 338.352, "ARG_OF_PERICENTER": 96.9333, "MEAN_ANOMALY": 263.2005, "EPHEMERIS_TYPE": 0, "CLASSIFICATION_TYPE": "U", "NORAD_CAT_ID": 37781, "ELEMENT_SET_NO": 999, "REV_AT_EPOCH": 71968, "BSTAR": 6.2792901e-05, "MEAN_MOTION_DOT": 2e-07, "MEAN_MOTION_DDOT": 0}, "tle": {"line1": "1 37781U 11043A   25337.27159295  .00000020  00000+0  62793-4 0  9997", "line2": "2 37781  99.3377 338.3520 0001644  96.9333 263.2005 13.78834162719680"}}, "geometry": {"type": "Point", "coordinates": [-63.04606017200603, 76.10762015089094]}}, {"type": "Feature", "properties": {"norad_id": 37791, "name": "RASAT", "group": "resource", "lat": 35.666187237269945, "lon": -107.18734990604594, "alt_km": 655.6875565308819, "timestamp": "2025-12-03T13:52:09.222075+00:00", "meta": {"OBJECT_NAME": "RASAT", "OBJECT_ID": "2011-044D", "EPOCH": "2025-12-03T08:29:56.842368", "MEAN_MOTION": 14.67887753, "ECCENTRICITY": 0.00219645, "INCLINATION": 98.0656, "RA_OF_ASC_NODE": 66.7512, "ARG_OF_PERICENTER": 93.2809, "MEAN_ANOMALY": 308.655, "EPHEMERIS_TYPE": 0, "CLASSIFICATION_TYPE": "U", "NORAD_CAT_ID": 37791, "ELEMENT_SET_NO": 999, "REV_AT_EPOCH": 76445, "BSTAR": 0.0001857483, "MEAN_MOTION_DOT": 1.017e-05, "MEAN_MOTION_DDOT": 0}, "tle": {"line1": "1 37791U 11044D   25337.35413012  .00001017  00000+0  18575-3 0  9993", "line2": "2 37791  98.0656  66.7512 0021964  93.2809 308.6550 14.67887753764452"}}, "geometry": {"type": "Point", "coordinates": [-107.18734990604594, 35.666187237269945]}}, {"type": "Feature", "properties": {"norad_id": 37841, "name": "SRMSAT", "group": "resource", "lat": -12.236502390691749, "lon": 20.075843499906494, "alt_km": 844.9168096903923, "timestamp": "2025-12-03T13:52:09.222102+00:00", "meta": {"OBJECT_NAME": "SRMSAT", "OBJECT_ID": "2011-058D", "EPOCH": "2025-12-03T05:06:49.197888", "MEAN_MOTION": 14.11506204, "ECCENTRICITY": 0.00117311, "INCLINATION": 19.9698, "RA_OF_ASC_NODE": 165.6115, "ARG_OF_PERICENTER": 207.8469, "MEAN_ANOMALY": 312.6999, "EPHEMERIS_TYPE": 0, "CLASSIFICATION_TYPE": "U", "NORAD_CAT_ID": 37841, "ELEMENT_SET_NO": 999, "REV_AT_EPOCH": 73009, "BSTAR": 0.00012787162, "MEAN_MOTION_DOT": 5.01e-06, "MEAN_MOTION_DDOT": 0}, "tle": {"line1": "1 37841U 11058D   25337.21306942  .00000501  00000+0  12787-3 0  9998", "line2": "2 37841  19.9698 165.6115 0011731 207.8469 312.6999 14.11506204730093"}}, "geometry": {"type": "Point", "coordinates": [20.075843499906494, -12.236502390691749]}}, {"type": "Feature", "properties": {"norad_id": 38012, "name": "PLEIADES 1A", "group": "resource", "lat": -65.21638712046797, "lon": -147.67213789554646, "alt_km": 706.053753057111, "timestamp": "2025-12-03T13:52:09.222115+00:00", "meta": {"OBJECT_NAME": "PLEIADES 1A", "OBJECT_ID": "2011-076F", "EPOCH": "2025-12-03T08:12:34.720992", "MEAN_MOTION": 14.58546444, "ECCENTRICITY": 0.00014074, "INCLINATION": 98.1834, "RA_OF_ASC_NODE": 50.2553, "ARG_OF_PERICENTER": 81.3506, "MEAN_ANOMALY": 7.6393, "EPHEMERIS_TYPE": 0, "CLASSIFICATION_TYPE": "U", "NORAD_CAT_ID": 38012, "ELEMENT_SET_NO": 999, "REV_AT_EPOCH": 74344, "BSTAR": 0.00015255732, "MEAN_MOTION_DOT": 6.64e-06, "MEAN_MOTION_DDOT": 0}, "tle": {"line1": "1 38012U 11076F   25337.34206853  .00000664  00000+0  15256-3 0  9997", "line2": "2 38012  98.1834  50.2553 0001407  81.3506   7.6393 14.58546444743449"}}, "geometry": {"type": "Point", "coordinates": [-147.67213789554646, -65.21638712046797]}}, {"type": "Feature", "properties": {"norad_id": 38038, "name": "ZIYUAN 1-02C (ZY 1-02C)", "group": "resource", "lat": 67.50604030879911, "lon": -115.24240120684662, "alt_km": 755.615941571682, "timestamp": "2025-12-03T13:52:09.222126+00:00", "meta": {"OBJECT_NAME": "ZIYUAN 1-02C (ZY 1-02C)", "OBJECT_ID": "2011-079A", "EPOCH": "2025-12-03T08:59:27.792672", "MEAN_MOTION": 14.37995005, "ECCENTRICITY": 0.00067791, "INCLINATION": 98.4346, "RA_OF_ASC_NODE": 43.5605, "ARG_OF_PERICENTER": 164.4235, "MEAN_ANOMALY": 334.9162, "EPHEMERIS_TYPE": 0, "CLASSIFICATION_TYPE": "U", "NORAD_CAT_ID": 38038, "ELEMENT_SET_NO": 999, "REV_AT_EPOCH": 73106, "BSTAR": 0.00027802353, "MEAN_MOTION_DOT": 7.98e-06, "MEAN_MOTION_DDOT": 0}, "tle": {"line1": "1 38038U 11079A   25337.37462723  .00000798  00000+0  27802-3 0  9999", "line2": "2 38038  98.4346  43.5605 0006779 164.4235 334.9162 14.37995005731063"}}, "geometry": {"type": "Point", "coordinates": [-115.24240120684662, 67.50604030879911]}}, {"type": "Feature", "properties": {"norad_id": 38046, "name": "ZIYUAN 3-1 (ZY 3-1)", "group": "resource", "lat": -43.744538033497065, "lon": 50.720965378185156, "alt_km": 374.4959727436162, "timestamp": "2025-12-03T13:52:09.222138+00:00", "meta": {"OBJECT_NAME": "ZIYUAN 3-1 (ZY 3-1)", "OBJECT_ID": "2012-001A", "EPOCH": "2025-12-03T07:55:33.833280", "MEAN_MOTION": 15.66752014, "ECCENTRICITY": 0.00022023, "INCLINATION": 97.1779, "RA_OF_ASC_NODE": 43.54, "ARG_OF_PERICENTER": 32.5738, "MEAN_ANOMALY": 327.5658, "EPHEMERIS_TYPE": 0, "CLASSIFICATION_TYPE": "U", "NORAD_CAT_ID": 38046, "ELEMENT_SET_NO": 999, "REV_AT_EPOCH": 77349, "BSTAR": 0.00073564444, "MEAN_MOTION_DOT": 0.00077816, "MEAN_MOTION_DDOT": 0}, "tle": {"line1": "1 38046U 12001A   25337.33025270  .00077816  00000+0  73564-3 0  9993", "line2": "2 38046  97.1779  43.5400 0002202  32.5738 327.5658 15.66752014773496"}}, "geometry": {"type": "Point", "coordinates": [50.720965378185156, -43.744538033497065]}}, {"type": "Feature", "properties": {"norad_id": 38338, "name": "ARIRANG-3 (KOMPSAT-3)", "group": "resource", "lat": 39.50979934781937, "lon": -74.84114080947047, "alt_km": 681.0859707918116, "timestamp": "2025-12-03T13:52:09.222149+00:00", "meta": {"OBJECT_NAME": "ARIRANG-3 (KOMPSAT-3)", "OBJECT_ID": "2012-025B", "EPOCH": "2025-12-03T08:45:29.749824", "MEAN_MOTION": 14.61691922, "ECCENTRICITY": 0.00060258, "INCLINATION": 98.3308, "RA_OF_ASC_NODE": 291.8845, "ARG_OF_PERICENTER": 8.3029, "MEAN_ANOMALY": 351.827, "EPHEMERIS_TYPE": 0, "CLASSIFICATION_TYPE": "U", "NORAD_CAT_ID": 38338, "ELEMENT_SET_NO": 999, "REV_AT_EPOCH": 72273, "BSTAR": 0.00019556105, "MEAN_MOTION_DOT": 9.25e-06, "MEAN_MOTION_DDOT": 0}, "tle": {"line1": "1 38338U 12025B   25337.36492766  .00000925  00000+0  19556-3 0  9992", "line2": "2 38338  98.3308 291.8845 0006025   8.3029 351.8270 14.61691922722738"}}, "geometry": {"type": "Point", "coordinates": [-74.84114080947047, 39.50979934781937]}}, {"type": "Feature", "properties": {"norad_id": 38709, "name": "EXACTVIEW-1 (ADS-1B)", "group": "resource", "lat": 10.26886010299598, "lon": -92.58569195363789, "alt_km": 817.1834767364853, "timestamp": "2025-12-03T13:52:09.222160+00:00", "meta": {"OBJECT_NAME": "EXACTVIEW-1 (ADS-1B)", "OBJECT_ID": "2012-039C", "EPOCH": "2025-12-03T04:39:01.819584", "MEAN_MOTION": 14.24901375, "ECCENTRICITY": 0.00111522, "INCLINATION": 98.9635, "RA_OF_ASC_NODE": 85.3837, "ARG_OF_PERICENTER": 21.4739, "MEAN_ANOMALY": 338.6905, "EPHEMERIS_TYPE": 0, "CLASSIFICATION_TYPE": "U", "NORAD_CAT_ID": 38709, "ELEMENT_SET_NO": 999, "REV_AT_EPOCH": 69479, "BSTAR": 0.00011658335, "MEAN_MOTION_DOT": 2.26e-06, "MEAN_MOTION_DDOT": 0}, "tle": {"line1": "1 38709U 12039C   25337.19377106  .00000226  00000+0  11658-3 0  9999", "line2": "2 38709  98.9635  85.3837 0011152  21.4739 338.6905 14.24901375694794"}}, "geometry": {"type": "Point", "coordinates": [-92.58569195363789, 10.26886010299598]}}]}